NORAD_CAT_ID,OBJECT_NAME,OBJECT_TYPE,EPOCH,MEAN_MOTION,ECCENTRICITY,INCLINATION,RA_OF_ASC_NODE,ARG_OF_PERICENTER,MEAN_ANOMALY,BSTAR,MEAN_MOTION_DOT,MEAN_MOTION_DDOT,TLE_LINE0,TLE_LINE1,TLE_LINE2,SEMIMAJOR_AXIS,PERIOD,APOGEE,PERIGEE,DECAYED
52140.0,STARLINK-3682,PAYLOAD,2024-03-21 22:30:59,15.08844142,0.0001385,53.2168,51.2261,100.4925,259.6223,8.5146e-06,-1.52e-06,0.0,0 STARLINK-3682,1 52140U 22029BE  24081.93818714 -.00000152  00000-0  85146-5 0  9991,2 52140  53.2168  51.2261 0001385 100.4925 259.6223 15.08844142112587,6917.868,95.437,540.691,538.775,0.0
52140.0,STARLINK-3682,PAYLOAD,2024-03-22 03:17:07,15.08860404,0.0001573,53.2176,50.3375,108.6233,251.493,0.00015958,2.254e-05,0.0,0 STARLINK-3682,1 52140U 22029BE  24082.13689160  .00002254  00000-0  15958-3 0  9991,2 52140  53.2176  50.3375 0001573 108.6233 251.4930 15.08860404112611,6917.818,95.436,540.771,538.595,0.0
52140.0,STARLINK-3682,PAYLOAD,2024-03-22 08:03:17,15.08857307,0.0001285,53.2161,49.439,87.2567,272.8572,0.00010002,1.305e-05,0.0,0 STARLINK-3682,1 52140U 22029BE  24082.33561474  .00001305  00000-0  10002-3 0  9991,2 52140  53.2161  49.4390 0001285  87.2567 272.8572 15.08857307112643,6917.827,95.436,540.581,538.804,0.0
52140.0,STARLINK-3682,PAYLOAD,2024-03-22 22:21:46,15.08830293,0.0001442,53.2161,46.7651,87.1452,272.9705,2.6662e-05,1.36e-06,0.0,0 STARLINK-3682,1 52140U 22029BE  24082.93179337  .00000136  00000-0  26662-4 0  9991,2 52140  53.2161  46.7651 0001442  87.1452 272.9705 15.08830293112734,6917.91,95.438,540.773,538.777,0.0
52140.0,STARLINK-3682,PAYLOAD,2024-03-23 04:43:19,15.08831316,0.0001423,53.2169,45.5774,83.6753,276.4401,4.6989e-05,4.6e-06,0.0,0 STARLINK-3682,1 52140U 22029BE  24083.19675542  .00000460  00000-0  46989-4 0  9993,2 52140  53.2169  45.5774 0001423  83.6753 276.4401 15.08831316112772,6917.907,95.438,540.756,538.788,0.0
52140.0,STARLINK-3682,PAYLOAD,2024-03-23 07:54:05,15.08832883,0.0001418,53.2169,44.9818,83.2551,276.8602,6.1209e-05,6.86e-06,0.0,0 STARLINK-3682,1 52140U 22029BE  24083.32923544  .00000686  00000-0  61209-4 0  9998,2 52140  53.2169  44.9818 0001418  83.2551 276.8602 15.08832883112799,6917.902,95.438,540.748,538.786,0.0
52140.0,STARLINK-3682,PAYLOAD,2024-03-24 04:34:05,15.0886281,0.0001549,53.2173,41.1174,94.4604,265.6566,0.00070255,0.00010918,0.0,0 STARLINK-3682,1 52140U 22029BE  24084.19034281  .00010918  00000-0  70255-3 0  9994,2 52140  53.2173  41.1174 0001549  94.4604 265.6566 15.08862810112929,6917.811,95.436,540.747,538.604,0.0
52140.0,STARLINK-3682,PAYLOAD,2024-03-24 06:09:28,15.08867413,0.0001552,53.2172,40.82,108.2634,251.8527,0.00079653,0.00012421,0.0,0 STARLINK-3682,1 52140U 22029BE  24084.25658024  .00012421  00000-0  79653-3 0  9990,2 52140  53.2172  40.8200 0001552 108.2634 251.8527 15.08867413112934,6917.797,95.436,540.735,538.588,0.0
52140.0,STARLINK-3682,PAYLOAD,2024-03-24 20:27:58,15.08827865,7.05e-05,53.2174,38.1445,125.0272,235.0787,2.1673e-05,5.7e-07,0.0,0 STARLINK-3682,1 52140U 22029BE  24084.85275916  .00000057  00000-0  21673-4 0  9993,2 52140  53.2174  38.1445 0000705 125.0272 235.0787 15.08827865113021,6917.917,95.438,540.27,539.295,0.0
52140.0,STARLINK-3682,PAYLOAD,2024-03-25 04:24:54,15.08838246,0.0001809,53.217,36.6637,79.8196,280.3,0.00057619,8.893e-05,0.0,0 STARLINK-3682,1 52140U 22029BE  24085.18395887  .00008893  00000-0  57619-3 0  9994,2 52140  53.2170  36.6637 0001809  79.8196 280.3000 15.08838246113071,6917.886,95.438,541.002,538.499,0.0
52140.0,STARLINK-3682,PAYLOAD,2024-03-25 06:00:16,15.08849456,0.0001686,53.2171,36.3595,87.9588,272.1597,0.0011087,0.00017406,0.0,0 STARLINK-3682,1 52140U 22029BE  24085.25019642  .00017406  00000-0  11087-2 0  9992,2 52140  53.2171  36.3595 0001686  87.9588 272.1597 15.08849456113086,6917.851,95.437,540.883,538.55,0.0
52140.0,STARLINK-3682,PAYLOAD,2024-03-25 13:57:12,15.08842161,0.000134,53.2188,34.8705,103.629,256.4852,0.0014723,0.00023223,0.0,0 STARLINK-3682,1 52140U 22029BE  24085.58139786  .00023223  00000-0  14723-2 0  9994,2 52140  53.2188  34.8705 0001340 103.6290 256.4852 15.08842161113134,6917.874,95.437,540.666,538.812,0.0
52140.0,STARLINK-3682,PAYLOAD,2024-03-26 02:40:18,15.0883313,0.0002074,53.2181,32.4913,102.578,257.5444,0.0012114,0.0001904,0.0,0 STARLINK-3682,1 52140U 22029BE  24086.11132953  .00019040  00000-0  12114-2 0  9997,2 52140  53.2181  32.4913 0002074 102.5780 257.5444 15.08833130113213,6917.901,95.438,541.201,538.332,0.0
52140.0,STARLINK-3682,PAYLOAD,2024-03-26 13:48:00,15.08836913,0.000209,53.2185,30.4101,100.7899,259.3329,0.00053494,8.235e-05,0.0,0 STARLINK-3682,1 52140U 22029BE  24086.57501013  .00008235  00000-0  53494-3 0  9995,2 52140  53.2185  30.4101 0002090 100.7899 259.3329 15.08836913113284,6917.89,95.438,541.201,538.309,0.0
52140.0,STARLINK-3682,PAYLOAD,2024-03-27 02:31:05,15.08852881,0.0001867,53.2179,28.0311,102.4023,257.7178,0.00071548,0.00011121,0.0,0 STARLINK-3682,1 52140U 22029BE  24087.10492589  .00011121  00000-0  71548-3 0  9990,2 52140  53.2179  28.0311 0001867 102.4023 257.7178 15.08852881113367,6917.841,95.437,540.998,538.414,0.0
52140.0,STARLINK-3682,PAYLOAD,2024-03-28 02:21:52,15.08851,0.0001409,53.2175,23.5714,97.7102,262.4051,0.00041583,6.338e-05,0.0,0 STARLINK-3682,1 52140U 22029BE  24088.09852544  .00006338  00000-0  41583-3 0  9990,2 52140  53.2175  23.5714 0001409  97.7102 262.4051 15.08851000113518,6917.847,95.437,540.686,538.737,0.0
52140.0,STARLINK-3682,PAYLOAD,2024-03-28 05:32:38,15.08851232,0.0001407,53.2176,22.978,95.8893,264.2259,0.0003967,6.033e-05,0.0,0 STARLINK-3682,1 52140U 22029BE  24088.23100447  .00006033  00000-0  39670-3 0  9990,2 52140  53.2176  22.9780 0001407  95.8893 264.2259 15.08851232113538,6917.846,95.437,540.684,538.738,0.0
52140.0,STARLINK-3682,PAYLOAD,2024-03-28 23:01:53,15.08845858,0.000143,53.2178,19.7066,99.556,260.5593,0.00020922,3.044e-05,0.0,0 STARLINK-3682,1 52140U 22029BE  24088.95964390  .00003044  00000-0  20922-3 0  9993,2 52140  53.2178  19.7066 0001430  99.5560 260.5593 15.08845858113648,6917.862,95.437,540.717,538.738,0.0
52140.0,STARLINK-3682,PAYLOAD,2024-03-29 02:12:39,15.08838826,0.000126,53.218,19.1129,85.5938,274.5198,-4.0495e-05,-9.32e-06,0.0,0 STARLINK-3682,1 52140U 22029BE  24089.09212485 -.00000932  00000-0 -40495-4 0  9993,2 52140  53.2180  19.1129 0001260  85.5938 274.5198 15.08838826113665,6917.884,95.438,540.621,538.877,0.0
52140.0,STARLINK-3682,PAYLOAD,2024-03-29 11:44:58,15.08838567,0.0001252,53.2179,17.3292,84.7815,275.332,-3.8312e-05,-8.98e-06,0.0,0 STARLINK-3682,1 52140U 22029BE  24089.48956666 -.00000898  00000-0 -38312-4 0  9998,2 52140  53.2179  17.3292 0001252  84.7815 275.3320 15.08838567113725,6917.885,95.438,540.616,538.884,0.0
52140.0,STARLINK-3682,PAYLOAD,2024-03-29 22:52:40,15.0884459,0.0001025,53.2171,15.2515,76.5728,283.5378,6.8641e-05,8.05e-06,0.0,0 STARLINK-3682,1 52140U 22029BE  24089.95324573  .00000805  00000-0  68641-4 0  9990,2 52140  53.2171  15.2515 0001025  76.5728 283.5378 15.08844590113796,6917.866,95.437,540.44,539.022,0.0
52140.0,STARLINK-3682,PAYLOAD,2024-03-30 02:03:26,15.08851737,0.0001069,53.2172,14.6575,86.6515,273.46,0.00017107,2.437e-05,0.0,0 STARLINK-3682,1 52140U 22029BE  24090.08572117  .00002437  00000-0  17107-3 0  9998,2 52140  53.2172  14.6575 0001069  86.6515 273.4600 15.08851737113810,6917.845,95.437,540.449,538.97,0.0
52140.0,STARLINK-3682,PAYLOAD,2024-03-30 11:35:44,15.08852055,9.76e-05,53.2166,12.869,74.7015,285.4085,0.00016246,2.3e-05,0.0,0 STARLINK-3682,1 52140U 22029BE  24090.48315733  .00002300  00000-0  16246-3 0  9993,2 52140  53.2166  12.8690 0000976  74.7015 285.4085 15.08852055113870,6917.844,95.437,540.384,539.033,0.0
52140.0,STARLINK-3682,PAYLOAD,2024-03-30 17:57:18,15.08840334,0.000158,53.2184,11.6833,85.5618,274.5555,0.00010548,1.391e-05,0.0,0 STARLINK-3682,1 52140U 22029BE  24090.74812701  .00001391  00000-0  10548-3 0  9997,2 52140  53.2184  11.6833 0001580  85.5618 274.5555 15.08840334113910,6917.879,95.438,540.837,538.651,0.0
52140.0,STARLINK-3682,PAYLOAD,2024-03-30 22:43:28,15.08834589,0.000178,53.2193,10.7909,81.6028,278.5166,0.00012917,1.768e-05,0.0,0 STARLINK-3682,1 52140U 22029BE  24090.94685259  .00001768  00000-0  12917-3 0  9995,2 52140  53.2193  10.7909 0001780  81.6028 278.5166 15.08834589113948,6917.897,95.438,540.993,538.531,0.0
52140.0,STARLINK-3682,PAYLOAD,2024-03-31 11:26:32,15.08842732,0.0001241,53.2177,8.4125,82.1118,278.0015,0.00017295,2.466e-05,0.0,0 STARLINK-3682,1 52140U 22029BE  24091.47676539  .00002466  00000-0  17295-3 0  9995,2 52140  53.2177   8.4125 0001241  82.1118 278.0015 15.08842732114029,6917.872,95.437,540.596,538.879,0.0
52140.0,STARLINK-3682,PAYLOAD,2024-03-31 22:34:14,15.08847117,0.0001437,53.2174,6.3316,84.6539,275.4618,9.6676e-05,1.251e-05,0.0,0 STARLINK-3682,1 52140U 22029BE  24091.94044148  .00001251  00000-0  96676-4 0  9994,2 52140  53.2174   6.3316 0001437  84.6539 275.4618 15.08847117114095,6917.859,95.437,540.718,538.73,0.0
52140.0,STARLINK-3682,PAYLOAD,2024-04-01 01:45:00,15.08853941,0.0001335,53.2175,5.7356,83.4772,276.6372,7.2356e-05,8.64e-06,0.0,0 STARLINK-3682,1 52140U 22029BE  24092.07291737  .00000864  00000-0  72356-4 0  9995,2 52140  53.2175   5.7356 0001335  83.4772 276.6372 15.08853941114111,6917.838,95.437,540.626,538.779,0.0
52140.0,STARLINK-3682,PAYLOAD,2024-04-01 11:17:18,15.08847034,0.0001075,53.2176,3.9489,86.4864,273.6251,2.7561e-05,1.51e-06,0.0,0 STARLINK-3682,1 52140U 22029BE  24092.47035814  .00000151  00000-0  27561-4 0  9998,2 52140  53.2176   3.9489 0001075  86.4864 273.6251 15.08847034114170,6917.859,95.437,540.468,538.98,0.0
52140.0,STARLINK-3682,PAYLOAD,2024-04-02 01:35:48,15.08835627,0.0001345,53.2193,1.2761,85.8303,274.2843,7.3859e-05,8.88e-06,0.0,0 STARLINK-3682,1 52140U 22029BE  24093.06652961  .00000888  00000-0  73859-4 0  9990,2 52140  53.2193   1.2761 0001345  85.8303 274.2843 15.08835627114263,6917.894,95.438,540.689,538.828,0.0
